{
  "type": "Feature",
  "properties": {
    "source": "strava heatmap 14/12812/8038",
    "origin": "slid",
    "pass": 1,
    "iterations": 100,
    "score": 0.542649,
    "points": 49.5,
    "parameters": {
      "smoothingStdDev": 16,
      "gradientScale": 0.5,
      "distanceScale": 0.2,
      "angleScale": 0.1,
      "momentumScale": 0.7,
      "resampleInterval": 5,
      "minLoops": 100,
      "maxLoops": 4000,
      "thresholdEpsilon": 0.0005,
      "scoreSmoothing": 0.2,
      "depthBasedReduction": false,
      "gradientPerCell": true,
      "trimRadius": 0,
      "simplifyTolerance": 1,
      "ghostCount": 200,
      "mercatorScale": 1.0017331335548716,
      "showGhosts": true,
      "showSmoothed": false
    }
  },
  "geometry": {
    "type": "LineString",
    "coordinates": [
      [
        101.5265265,
        3.3601506
      ],
      [
        101.5265682,
        3.3601107
      ],
      [
        101.526612,
        3.3601344
      ],
      [
        101.5267711,
        3.3602866
      ],
      [
        101.526901,
        3.360436
      ],
      [
        101.5270103,
        3.3606064
      ],
      [
        101.5270857,
        3.3608194
      ],
      [
        101.5271367,
        3.3608213
      ],
      [
        101.5272886,
        3.3607576
      ],
      [
        101.527405,
        3.3607326
      ],
      [
        101.5277618,
        3.3607946
      ],
      [
        101.5280081,
        3.3608065
      ],
      [
        101.5281115,
        3.36084
      ],
      [
        101.528163,
        3.3608725
      ],
      [
        101.5282519,
        3.3609584
      ],
      [
        101.5283151,
        3.3610549
      ],
      [
        101.5284893,
        3.3615497
      ],
      [
        101.5285806,
        3.3616567
      ],
      [
        101.5286104,
        3.3616733
      ],
      [
        101.5286793,
        3.3616787
      ],
      [
        101.5288061,
        3.3616547
      ],
      [
        101.5290696,
        3.361528
      ],
      [
        101.5291484,
        3.361462
      ],
      [
        101.5291738,
        3.3614225
      ],
      [
        101.5292138,
        3.3613118
      ],
      [
        101.5292408,
        3.3610971
      ],
      [
        101.5292358,
        3.3610001
      ],
      [
        101.5292612,
        3.3608245
      ],
      [
        101.5292642,
        3.3606203
      ],
      [
        101.5293277,
        3.3603704
      ],
      [
        101.5294258,
        3.3601917
      ],
      [
        101.5295034,
        3.360117
      ],
      [
        101.5295793,
        3.3600686
      ],
      [
        101.5296465,
        3.3599789
      ],
      [
        101.5296437,
        3.3599646
      ],
      [
        101.5296504,
        3.3600072
      ],
      [
        101.5296908,
        3.3600851
      ],
      [
        101.5297379,
        3.3601443
      ],
      [
        101.5298635,
        3.360254
      ],
      [
        101.5299408,
        3.3602817
      ],
      [
        101.5300771,
        3.360252
      ],
      [
        101.5304088,
        3.3601178
      ],
      [
        101.530458,
        3.3601111
      ],
      [
        101.5306343,
        3.3600289
      ],
      [
        101.5307735,
        3.3599884
      ],
      [
        101.5308712,
        3.3599861
      ],
      [
        101.5310815,
        3.3600722
      ],
      [
        101.5311262,
        3.3601132
      ],
      [
        101.5312359,
        3.3602577
      ],
      [
        101.5312801,
        3.3603947
      ],
      [
        101.5313422,
        3.3605201
      ],
      [
        101.5314059,
        3.3605857
      ],
      [
        101.5316213,
        3.3607245
      ],
      [
        101.5317287,
        3.3608406
      ],
      [
        101.5319442,
        3.361335
      ],
      [
        101.5319606,
        3.361409
      ],
      [
        101.5319692,
        3.3616296
      ],
      [
        101.5320263,
        3.3618139
      ],
      [
        101.5321175,
        3.3619618
      ],
      [
        101.5322831,
        3.3621752
      ],
      [
        101.5323731,
        3.3623463
      ],
      [
        101.5325448,
        3.3625137
      ],
      [
        101.5326273,
        3.3626197
      ],
      [
        101.5327132,
        3.3627878
      ],
      [
        101.5328077,
        3.3630435
      ],
      [
        101.5328647,
        3.3630925
      ],
      [
        101.5329455,
        3.3631343
      ],
      [
        101.5331541,
        3.3631784
      ],
      [
        101.5333664,
        3.3632636
      ],
      [
        101.5334178,
        3.3632649
      ],
      [
        101.5334638,
        3.3632862
      ],
      [
        101.5336752,
        3.3633282
      ],
      [
        101.5337389,
        3.3633686
      ],
      [
        101.5337852,
        3.3634335
      ],
      [
        101.533809,
        3.363507
      ],
      [
        101.5338107,
        3.3635691
      ],
      [
        101.5339,
        3.3637136
      ],
      [
        101.5340221,
        3.3638111
      ],
      [
        101.5341228,
        3.3638644
      ],
      [
        101.5342376,
        3.36399
      ],
      [
        101.5345185,
        3.3645042
      ],
      [
        101.5346225,
        3.3648063
      ],
      [
        101.53467,
        3.3649746
      ],
      [
        101.5346672,
        3.3650167
      ],
      [
        101.5346469,
        3.3650569
      ],
      [
        101.5345831,
        3.3654008
      ],
      [
        101.5345834,
        3.3655938
      ],
      [
        101.534565,
        3.3656321
      ],
      [
        101.5345614,
        3.3657197
      ],
      [
        101.5344304,
        3.3659834
      ],
      [
        101.5343133,
        3.3661525
      ],
      [
        101.5342804,
        3.3662705
      ],
      [
        101.534305,
        3.3663909
      ],
      [
        101.5344513,
        3.366751
      ],
      [
        101.5344768,
        3.3668671
      ],
      [
        101.5344757,
        3.3671869
      ],
      [
        101.5344537,
        3.3672472
      ],
      [
        101.5344523,
        3.3673971
      ],
      [
        101.534423,
        3.3674
      ]
    ]
  }
}